{"type": "FeatureCollection", "features": [ {"type": "Feature", "properties": {"norad_id": 44476, "name": "INTELSAT 39 (IS-39)", "group": "intelsat", "lat": -0.008434462058164376, "lon": -45.12650863913362, "alt_km": 35790.27300122802, "timestamp": "2025-12-10T11:33:53.059439+00:00", "meta": {"OBJECT_NAME": "INTELSAT 39 (IS-39)", "OBJECT_ID": "2019-049B", "EPOCH": "2025-12-10T00:53:38.582304", "MEAN_MOTION": 1.0027051, "ECCENTRICITY": 9.58e-05, "INCLINATION": 0.0171, "RA_OF_ASC_NODE": 322.3711, "ARG_OF_PERICENTER": 189.1323, "MEAN_ANOMALY": 2.8736, "EPHEMERIS_TYPE": 0, "CLASSIFICATION_TYPE": "U", "NORAD_CAT_ID": 44476, "ELEMENT_SET_NO": 999, "REV_AT_EPOCH": 2323, "BSTAR": 0, "MEAN_MOTION_DOT": 3.7e-07, "MEAN_MOTION_DDOT": 0}, "tle": {"line1": "1 44476U 19049B   25344.03725211  .00000037  00000+0  00000+0 0  9995", "line2": "2 44476   0.0171 322.3711 0000958 189.1323   2.8736  1.00270510 23236"}}, "geometry": {"type": "Point", "coordinates": [-45.12650863913362, -0.008434462058164376]}}, {"type": "Feature", "properties": {"norad_id": 46114, "name": "GALAXY 30 (G-30)", "group": "intelsat", "lat": 0.025785274497707903, "lon": 127.8999903357726, "alt_km": 35792.59259343872, "timestamp": "2025-12-10T11:33:53.059450+00:00", "meta": {"OBJECT_NAME": "GALAXY 30 (G-30)", "OBJECT_ID": "2020-056C", "EPOCH": "2025-12-09T14:41:23.762112", "MEAN_MOTION": 1.0027148, "ECCENTRICITY": 0.0002377, "INCLINATION": 0.0165, "RA_OF_ASC_NODE": 5.2099, "ARG_OF_PERICENTER": 252.81, "MEAN_ANOMALY": 275.9252, "EPHEMERIS_TYPE": 0, "CLASSIFICATION_TYPE": "U", "NORAD_CAT_ID": 46114, "ELEMENT_SET_NO": 999, "REV_AT_EPOCH": 1939, "BSTAR": 0, "MEAN_MOTION_DOT": 3.9e-07, "MEAN_MOTION_DDOT": 0}, "tle": {"line1": "1 46114U 20056C   25343.61208058  .00000039  00000+0  00000+0 0  9996", "line2": "2 46114   0.0165   5.2099 0002377 252.8100 275.9252  1.00271480 19399"}}, "geometry": {"type": "Point", "coordinates": [127.8999903357726, 0.025785274497707903]}}, {"type": "Feature", "properties": {"norad_id": 54026, "name": "GALAXY 33 (G-33)", "group": "intelsat", "lat": 0.010875179893005836, "lon": 119.9121358184305, "alt_km": 35791.78528347355, "timestamp": "2025-12-10T11:33:53.059461+00:00", "meta": {"OBJECT_NAME": "GALAXY 33 (G-33)", "OBJECT_ID": "2022-128A", "EPOCH": "2025-12-10T03:48:38.551392", "MEAN_MOTION": 1.0027257, "ECCENTRICITY": 0.0002197, "INCLINATION": 0.0114, "RA_OF_ASC_NODE": 310.8849, "ARG_OF_PERICENTER": 298.7469, "MEAN_ANOMALY": 113.6731, "EPHEMERIS_TYPE": 0, "CLASSIFICATION_TYPE": "U", "NORAD_CAT_ID": 54026, "ELEMENT_SET_NO": 999, "REV_AT_EPOCH": 1184, "BSTAR": 0, "MEAN_MOTION_DOT": 8.2e-07, "MEAN_MOTION_DDOT": 0}, "tle": {"line1": "1 54026U 22128A   25344.15877953  .00000082  00000+0  00000+0 0  9993", "line2": "2 54026   0.0114 310.8849 0002197 298.7469 113.6731  1.00272570 11842"}}, "geometry": {"type": "Point", "coordinates": [119.9121358184305, 0.010875179893005836]}}, {"type": "Feature", "properties": {"norad_id": 54027, "name": "GALAXY 34 (G-34)", "group": "intelsat", "lat": 0.019892495941730964, "lon": 123.9807678085784, "alt_km": 35789.63205095654, "timestamp": "2025-12-10T11:33:53.059473+00:00", "meta": {"OBJECT_NAME": "GALAXY 34 (G-34)", "OBJECT_ID": "2022-128B", "EPOCH": "2025-12-10T01:35:38.736384", "MEAN_MOTION": 1.00270698, "ECCENTRICITY": 0.0001395, "INCLINATION": 0.0243, "RA_OF_ASC_NODE": 327.7719, "ARG_OF_PERICENTER": 279.8514, "MEAN_ANOMALY": 86.4064, "EPHEMERIS_TYPE": 0, "CLASSIFICATION_TYPE": "U", "NORAD_CAT_ID": 54027, "ELEMENT_SET_NO": 999, "REV_AT_EPOCH": 1201, "BSTAR": 0, "MEAN_MOTION_DOT": 0, "MEAN_MOTION_DDOT": 0}, "tle": {"line1": "1 54027U 22128B   25344.06642056  .00000000  00000+0  00000+0 0  9998", "line2": "2 54027   0.0243 327.7719 0001395 279.8514  86.4064  1.00270698 12014"}}, "geometry": {"type": "Point", "coordinates": [123.9807678085784, 0.019892495941730964]}}, {"type": "Feature", "properties": {"norad_id": 54243, "name": "GALAXY 31 (G-31)", "group": "intelsat", "lat": -0.0036791142385917868, "lon": 131.91687061309483, "alt_km": 35791.929769440096, "timestamp": "2025-12-10T11:33:53.059485+00:00", "meta": {"OBJECT_NAME": "GALAXY 31 (G-31)", "OBJECT_ID": "2022-153A", "EPOCH": "2025-12-10T04:39:38.509344", "MEAN_MOTION": 1.00272195, "ECCENTRICITY": 0.0001872, "INCLINATION": 0.0169, "RA_OF_ASC_NODE": 256.6393, "ARG_OF_PERICENTER": 14.3282, "MEAN_ANOMALY": 117.1221, "EPHEMERIS_TYPE": 0, "CLASSIFICATION_TYPE": "U", "NORAD_CAT_ID": 54243, "ELEMENT_SET_NO": 999, "REV_AT_EPOCH": 523, "BSTAR": 0, "MEAN_MOTION_DOT": 1.6e-07, "MEAN_MOTION_DDOT": 0}, "tle": {"line1": "1 54243U 22153A   25344.19419571  .00000016  00000+0  00000+0 0  9991", "line2": "2 54243   0.0169 256.6393 0001872  14.3282 117.1221  1.00272195  5230"}}, "geometry": {"type": "Point", "coordinates": [131.91687061309483, -0.0036791142385917868]}}, {"type": "Feature", "properties": {"norad_id": 54244, "name": "GALAXY 32 (G-32)", "group": "intelsat", "lat": -0.0011479295841371417, "lon": 161.9007362750682, "alt_km": 35796.108371742695, "timestamp": "2025-12-10T11:33:53.059497+00:00", "meta": {"OBJECT_NAME": "GALAXY 32 (G-32)", "OBJECT_ID": "2022-153B", "EPOCH": "2025-12-09T12:24:44.332992", "MEAN_MOTION": 1.00270521, "ECCENTRICITY": 0.00027242, "INCLINATION": 0.0086, "RA_OF_ASC_NODE": 338.62, "ARG_OF_PERICENTER": 330.4778, "MEAN_ANOMALY": 224.5904, "EPHEMERIS_TYPE": 0, "CLASSIFICATION_TYPE": "U", "NORAD_CAT_ID": 54244, "ELEMENT_SET_NO": 999, "REV_AT_EPOCH": 1124, "BSTAR": 0, "MEAN_MOTION_DOT": -1.72e-06, "MEAN_MOTION_DDOT": 0}, "tle": {"line1": "1 54244U 22153B   25343.51717978 -.00000172  00000+0  00000+0 0  9993", "line2": "2 54244   0.0086 338.6200 0002724 330.4778 224.5904  1.00270521 11246"}}, "geometry": {"type": "Point", "coordinates": [161.9007362750682, -0.0011479295841371417]}}, {"type": "Feature", "properties": {"norad_id": 54741, "name": "GALAXY 35 (G-35)", "group": "intelsat", "lat": 0.020715963240129455, "lon": 159.80596275882232, "alt_km": 35789.35232913569, "timestamp": "2025-12-10T11:33:53.059512+00:00", "meta": {"OBJECT_NAME": "GALAXY 35 (G-35)", "OBJECT_ID": "2022-170A", "EPOCH": "2025-12-10T04:23:38.620032", "MEAN_MOTION": 1.00271022, "ECCENTRICITY": 0.0002613, "INCLINATION": 0.031, "RA_OF_ASC_NODE": 99.3994, "ARG_OF_PERICENTER": 166.4389, "MEAN_ANOMALY": 146.1459, "EPHEMERIS_TYPE": 0, "CLASSIFICATION_TYPE": "U", "NORAD_CAT_ID": 54741, "ELEMENT_SET_NO": 999, "REV_AT_EPOCH": 1099, "BSTAR": 0, "MEAN_MOTION_DOT": -1.59e-06, "MEAN_MOTION_DDOT": 0}, "tle": {"line1": "1 54741U 22170A   25344.18308588 -.00000159  00000+0  00000+0 0  9996", "line2": "2 54741   0.0310  99.3994 0002613 166.4389 146.1459  1.00271022 10993"}}, "geometry": {"type": "Point", "coordinates": [159.80596275882232, 0.020715963240129455]}}, {"type": "Feature", "properties": {"norad_id": 54742, "name": "GALAXY 36 (G-36)", "group": "intelsat", "lat": 0.01066947649312765, "lon": 163.9124532667504, "alt_km": 35787.762806422135, "timestamp": "2025-12-10T11:33:53.059523+00:00", "meta": {"OBJECT_NAME": "GALAXY 36 (G-36)", "OBJECT_ID": "2022-170B", "EPOCH": "2025-12-10T04:23:38.620032", "MEAN_MOTION": 1.00270678, "ECCENTRICITY": 5.41e-05, "INCLINATION": 0.0119, "RA_OF_ASC_NODE": 34.2059, "ARG_OF_PERICENTER": 256.1943, "MEAN_ANOMALY": 125.667, "EPHEMERIS_TYPE": 0, "CLASSIFICATION_TYPE": "U", "NORAD_CAT_ID": 54742, "ELEMENT_SET_NO": 999, "REV_AT_EPOCH": 1087, "BSTAR": 0, "MEAN_MOTION_DOT": -1.82e-06, "MEAN_MOTION_DDOT": 0}, "tle": {"line1": "1 54742U 22170B   25344.18308588 -.00000182  00000+0  00000+0 0  9993", "line2": "2 54742   0.0119  34.2059 0000541 256.1943 125.6670  1.00270678 10872"}}, "geometry": {"type": "Point", "coordinates": [163.9124532667504, 0.01066947649312765]}}, {"type": "Feature", "properties": {"norad_id": 57493, "name": "GALAXY 37 (G-37)", "group": "intelsat", "lat": 0.01963362901118746, "lon": 125.9114864647823, "alt_km": 35793.3400847032, "timestamp": "2025-12-10T11:33:53.059534+00:00", "meta": {"OBJECT_NAME": "GALAXY 37 (G-37)", "OBJECT_ID": "2023-112A", "EPOCH": "2025-12-10T01:35:38.736384", "MEAN_MOTION": 1.00271897, "ECCENTRICITY": 0.0002305, "INCLINATION": 0.0105, "RA_OF_ASC_NODE": 352.6249, "ARG_OF_PERICENTER": 271.941, "MEAN_ANOMALY": 71.3969, "EPHEMERIS_TYPE": 0, "CLASSIFICATION_TYPE": "U", "NORAD_CAT_ID": 57493, "ELEMENT_SET_NO": 999, "REV_AT_EPOCH": 864, "BSTAR": 0, "MEAN_MOTION_DOT": 5.1e-07, "MEAN_MOTION_DDOT": 0}, "tle": {"line1": "1 57493U 23112A   25344.06642056  .00000051  00000+0  00000+0 0  9998", "line2": "2 57493   0.0105 352.6249 0002305 271.9410  71.3969  1.00271897  8649"}}, "geometry": {"type": "Point", "coordinates": [125.9114864647823, 0.01963362901118746]}}]}